OBJECT_NAME,OBJECT_ID,EPOCH,MEAN_MOTION,ECCENTRICITY,INCLINATION,RA_OF_ASC_NODE,ARG_OF_PERICENTER,MEAN_ANOMALY,EPHEMERIS_TYPE,CLASSIFICATION_TYPE,NORAD_CAT_ID,ELEMENT_SET_NO,REV_AT_EPOCH,BSTAR,MEAN_MOTION_DOT,MEAN_MOTION_DDOT
SKYSAT-C1,2016-040C,2026-06-18T20:16:20.930880,15.36323464,.00033327,96.9556,201.4750,55.6448,304.5113,0,U,41601,999,55812,.20060696E-3,.7031E-4,0
LAPAN-A3,2016-040E,2026-06-18T22:52:56.136000,15.33114180,.00106796,97.1489,166.0411,19.8611,340.3046,0,U,41603,999,55508,.91434948E-4,.2854E-4,0
GAOFEN-3,2016-049A,2026-06-18T22:58:20.612064,14.42215297,.00014267,98.4007,177.7165,99.7915,260.3436,0,U,41727,999,51890,-.28500865E-4,-.137E-5,0
SKYSAT-C4,2016-058B,2026-06-18T22:44:28.994784,15.48631088,.00015426,96.9169,191.6461,136.6942,223.4431,0,U,41771,999,54574,.24403663E-3,.12955E-3,0
SKYSAT-C5,2016-058C,2026-06-18T20:45:04.214304,15.34489399,.00009363,97.0465,210.4304,299.8082,60.3069,0,U,41772,999,54400,.18069329E-3,.5962E-4,0
SKYSAT-C2,2016-058D,2026-06-18T19:36:05.225760,15.42100866,.00045693,97.0165,191.8504,67.4437,292.7294,0,U,41773,999,54530,.22904226E-3,.9719E-4,0
SKYSAT-C3,2016-058E,2026-06-18T19:39:32.746464,15.52597634,.00014308,96.8999,200.6024,98.6663,261.4753,0,U,41774,999,54636,.30443758E-3,.18637E-3,0
ALSAT-1B,2016-059C,2026-06-18T22:32:32.408736,14.72277323,.00082183,97.7745,178.6275,213.5982,146.4706,0,U,41785,999,52083,.10732537E-3,.631E-5,0
PATHFINDER 1,2016-059E,2026-06-18T23:27:19.147680,14.67664834,.00279414,97.8166,169.1728,197.7515,162.2717,0,U,41787,999,51997,.82371978E-4,.424E-5,0
SCATSAT 1,2016-059H,2026-06-18T21:41:47.550912,14.79528474,.00534505,98.1191,233.6879,241.8267,117.7539,0,U,41790,999,10184,.11670729E-3,.836E-5,0
GOKTURK 1A,2016-073A,2026-06-18T22:56:24.322848,14.62776394,.00014474,98.1249,64.6031,75.0469,285.0893,0,U,41875,999,50908,.10301304E-3,.479E-5,0
RESOURCESAT-2A,2016-074A,2026-06-18T23:18:24.321312,14.21616946,.00033082,98.7526,243.4611,80.9921,279.1630,0,U,41877,999,49455,.89205539E-4,.151E-5,0
CARTOSAT-2D,2017-008A,2026-06-19T00:03:50.066784,15.19216070,.00038646,97.4103,229.2748,226.2168,133.8747,0,U,41948,999,51785,.11421524E-3,.2337E-4,0
SENTINEL-2B,2017-013A,2026-06-18T22:56:16.285920,14.30817206,.00011819,98.5691,244.7054,87.8653,272.2665,0,U,42063,999,48489,.27677986E-4,.29E-6,0
CARTOSAT-2E,2017-036C,2026-06-18T22:54:37.038240,15.19265261,.00022915,97.4271,229.7281,312.0672,48.0367,0,U,42767,999,49841,.13731206E-3,.2827E-4,0
FORMOSAT-5,2017-049A,2026-06-18T21:57:28.420992,14.50899349,.00126598,98.2254,245.1863,79.5929,280.6692,0,U,42920,999,46692,.36063567E-4,.99E-6,0
SENTINEL-5P,2017-064A,2026-06-18T18:03:42.297696,14.19519194,.00009795,98.7925,111.8727,86.7365,273.3923,0,U,42969,999,44978,.36804528E-4,.33E-6,0
SKYSAT-C11,2017-068A,2026-06-18T22:04:45.057216,15.57969641,.00005696,97.4361,318.8258,96.3617,263.7704,0,U,42987,999,48351,.28507934E-3,.21245E-3,0
SKYSAT-C10,2017-068B,2026-06-18T22:08:19.093344,15.34661787,.000112,97.4515,306.7861,98.8984,261.2386,0,U,42988,999,48262,.21565087E-3,.7162E-4,0
SKYSAT-C9,2017-068C,2026-06-18T22:14:21.812640,15.41597227,.00094471,97.4435,307.7418,127.5587,232.6519,0,U,42989,999,48302,.25524899E-3,.10666E-3,0
SKYSAT-C8,2017-068D,2026-06-18T21:23:16.186848,15.37002946,.00014472,97.4532,306.5607,95.7515,264.3894,0,U,42990,999,48257,.22675061E-3,.8125E-4,0
SKYSAT-C7,2017-068E,2026-06-18T21:14:09.565152,15.36953935,.0007195,97.4543,307.5440,101.8108,258.3943,0,U,42991,999,48263,.23146863E-3,.8289E-4,0
SKYSAT-C6,2017-068F,2026-06-18T15:31:29.350272,15.34231508,.0004503,97.4576,307.2670,133.8673,226.2942,0,U,42992,999,48254,.22842667E-3,.749E-4,0
CARTOSAT-2F,2018-004A,2026-06-18T22:06:10.462752,15.19221304,.00008389,97.4781,229.5391,197.8814,162.2391,0,U,43111,999,46759,.77493459E-4,.1563E-4,0
GAOFEN-1 02,2018-031A,2026-06-18T23:49:34.502880,14.76457693,.00036783,98.0524,232.5151,29.9235,330.2184,0,U,43259,999,44296,.55268232E-4,.333E-5,0
GAOFEN-1 03,2018-031B,2026-06-18T23:18:05.283072,14.76471197,.00037066,98.0517,232.3514,75.4569,284.7051,0,U,43260,999,44295,.84225397E-4,.535E-5,0
GAOFEN-1 04,2018-031D,2026-06-18T22:43:09.005664,14.76436936,.0002184,98.0525,232.5182,75.3144,284.8308,0,U,43262,999,44294,.11792723E-3,.769E-5,0
SENTINEL-3B,2018-039A,2026-06-18T22:37:51.502944,14.26735128,.00007202,98.6248,237.4501,92.1095,268.0168,0,U,43437,999,42437,.47993084E-4,.72E-6,0
GAOFEN-5 01,2018-043A,2026-06-18T21:52:22.021536,14.60606556,.00030282,98.4569,141.5337,80.5544,279.5998,0,U,43461,999,43194,.62007522E-4,.252E-5,0
GAOFEN-6,2018-048A,2026-06-18T06:58:53.520672,14.76618754,.0011887,97.9439,232.0243,162.1664,197.9965,0,U,43484,999,43355,.3422E-3,.2342E-4,0
