SKYSAT-C1               
1 41601U 16040C   26169.84468670  .00007031  00000+0  20061-3 0  9992
2 41601  96.9556 201.4750 0003332  55.6448 304.5113 15.36323464558121
LAPAN-A3                
1 41603U 16040E   26169.95342750  .00002854  00000+0  91435-4 0  9998
2 41603  97.1489 166.0411 0010679  19.8611 340.3046 15.33114180555082
GAOFEN-3                
1 41727U 16049A   26169.95718301 -.00000137  00000+0 -28501-4 0  9991
2 41727  98.4007 177.7165 0001426  99.7915 260.3436 14.42215297518902
SKYSAT-C4               
1 41771U 16058B   26169.94755781  .00012955  00000+0  24404-3 0  9998
2 41771  96.9169 191.6461 0001542 136.6942 223.4431 15.48631088545741
SKYSAT-C5               
1 41772U 16058C   26169.86463211  .00005962  00000+0  18069-3 0  9994
2 41772  97.0465 210.4304 0000936 299.8082  60.3069 15.34489399544006
SKYSAT-C2               
1 41773U 16058D   26169.81672715  .00009719  00000+0  22904-3 0  9998
2 41773  97.0165 191.8504 0004569  67.4437 292.7294 15.42100866545300
SKYSAT-C3               
1 41774U 16058E   26169.81912901  .00018637  00000+0  30444-3 0  9990
2 41774  96.8999 200.6024 0001430  98.6663 261.4753 15.52597634546364
ALSAT-1B                
1 41785U 16059C   26169.93926399  .00000631  00000+0  10733-3 0  9996
2 41785  97.7745 178.6275 0008218 213.5982 146.4706 14.72277323520835
PATHFINDER 1            
1 41787U 16059E   26169.97730495  .00000424  00000+0  82372-4 0  9991
2 41787  97.8166 169.1728 0027941 197.7515 162.2717 14.67664834519974
SCATSAT 1               
1 41790U 16059H   26169.90402258  .00000836  00000+0  11671-3 0  9991
2 41790  98.1191 233.6879 0053450 241.8267 117.7539 14.79528474101845
GOKTURK 1A              
1 41875U 16073A   26169.95583707  .00000479  00000+0  10301-3 0  9997
2 41875  98.1249  64.6031 0001447  75.0469 285.0893 14.62776394509083
RESOURCESAT-2A          
1 41877U 16074A   26169.97111483  .00000151  00000+0  89206-4 0  9998
2 41877  98.7526 243.4611 0003308  80.9921 279.1630 14.21616946494555
CARTOSAT-2D             
1 41948U 17008A   26170.00266281  .00002337  00000+0  11422-3 0  9990
2 41948  97.4103 229.2748 0003864 226.2168 133.8747 15.19216070517855
SENTINEL-2B             
1 42063U 17013A   26169.95574405  .00000029  00000+0  27678-4 0  9994
2 42063  98.5691 244.7054 0001181  87.8653 272.2665 14.30817206484894
CARTOSAT-2E             
1 42767U 17036C   26169.95459535  .00002827  00000+0  13731-3 0  9998
2 42767  97.4271 229.7281 0002291 312.0672  48.0367 15.19265261498416
FORMOSAT-5              
1 42920U 17049A   26169.91491228  .00000099  00000+0  36064-4 0  9998
2 42920  98.2254 245.1863 0012659  79.5929 280.6692 14.50899349466924
SENTINEL-5P             
1 42969U 17064A   26169.75257289  .00000033  00000+0  36805-4 0  9998
2 42969  98.7925 111.8727 0000979  86.7365 273.3923 14.19519194449784
SKYSAT-C11              
1 42987U 17068A   26169.91996594  .00021245  00000+0  28508-3 0  9997
2 42987  97.4361 318.8258 0000569  96.3617 263.7704 15.57969641483512
SKYSAT-C10              
1 42988U 17068B   26169.92244321  .00007162  00000+0  21565-3 0  9991
2 42988  97.4515 306.7861 0001120  98.8984 261.2386 15.34661787482623
SKYSAT-C9               
1 42989U 17068C   26169.92664135  .00010666  00000+0  25525-3 0  9994
2 42989  97.4435 307.7418 0009447 127.5587 232.6519 15.41597227483023
SKYSAT-C8               
1 42990U 17068D   26169.89115957  .00008125  00000+0  22675-3 0  9995
2 42990  97.4532 306.5607 0001447  95.7515 264.3894 15.37002946482570
SKYSAT-C7               
1 42991U 17068E   26169.88483293  .00008289  00000+0  23147-3 0  9992
2 42991  97.4543 307.5440 0007195 101.8108 258.3943 15.36953935482639
SKYSAT-C6               
1 42992U 17068F   26169.64686748  .00007490  00000+0  22843-3 0  9992
2 42992  97.4576 307.2670 0004503 133.8673 226.2942 15.34231508482546
CARTOSAT-2F             
1 43111U 18004A   26169.92095443  .00001563  00000+0  77493-4 0  9991
2 43111  97.4781 229.5391 0000838 197.8814 162.2391 15.19221304467599
GAOFEN-1 02             
1 43259U 18031A   26169.99276045  .00000333  00000+0  55268-4 0  9990
2 43259  98.0524 232.5151 0003678  29.9235 330.2184 14.76457693442964
GAOFEN-1 03             
1 43260U 18031B   26169.97089448  .00000535  00000+0  84225-4 0  9998
2 43260  98.0517 232.3514 0003706  75.4569 284.7051 14.76471197442957
GAOFEN-1 04             
1 43262U 18031D   26169.94663201  .00000769  00000+0  11793-3 0  9990
2 43262  98.0525 232.5182 0002184  75.3144 284.8308 14.76436936442945
SENTINEL-3B             
1 43437U 18039A   26169.94295721  .00000072  00000+0  47993-4 0  9999
2 43437  98.6248 237.4501 0000720  92.1095 268.0168 14.26735128424377
GAOFEN-5 01             
1 43461U 18043A   26169.91136599  .00000252  00000+0  62008-4 0  9999
2 43461  98.4569 141.5337 0003028  80.5544 279.5998 14.60606556431943
GAOFEN-6                
1 43484U 18048A   26169.29089723  .00002342  00000+0  34220-3 0  9992
2 43484  97.9439 232.0243 0011887 162.1664 197.9965 14.76618754433558
